[{"OBJECT_NAME":"ONEWEB-0350","OBJECT_ID":"2021-083AE","EPOCH":"2026-03-09T17:00:51.865632","MEAN_MOTION":13.13470767,"ECCENTRICITY":0.0001978,"INCLINATION":87.9035,"RA_OF_ASC_NODE":340.0081,"ARG_OF_PERICENTER":70.9572,"MEAN_ANOMALY":289.1771,"EPHEMERIS_TYPE":0,"CLASSIFICATION_TYPE":"U","NORAD_CAT_ID":49214,"ELEMENT_SET_NO":999,"REV_AT_EPOCH":21787,"BSTAR":-0.00056373023,"MEAN_MOTION_DOT":-1.93e-6,"MEAN_MOTION_DDOT":0},{"OBJECT_NAME":"METEOR 3-2","OBJECT_ID":"1988-064A","EPOCH":"2026-03-09T23:05:53.953728","MEAN_MOTION":13.17278782,"ECCENTRICITY":0.00183381,"INCLINATION":82.543,"RA_OF_ASC_NODE":41.0373,"ARG_OF_PERICENTER":95.0105,"MEAN_ANOMALY":320.0575,"EPHEMERIS_TYPE":0,"CLASSIFICATION_TYPE":"U","NORAD_CAT_ID":19336,"ELEMENT_SET_NO":999,"REV_AT_EPOCH":80859,"BSTAR":-0.00028263501,"MEAN_MOTION_DOT":-9.7e-7,"MEAN_MOTION_DDOT":0}]
